STARLINK-32354          
1 61932U 24207W   25293.86248733  .00052679  00000+0  19073-2 0  9998
2 61932  42.9944 355.1896 0000251 295.8418  64.2408 15.27629871 53782
STARLINK-32361          
1 61933U 24207X   25293.86425006  .00038738  00000+0  14099-2 0  9992
2 61933  43.0030 351.7237 0002031 275.0484  85.0136 15.27578307 53330
STARLINK-32500          
1 61935U 24207Z   25293.52400935  .00034877  00000+0  12717-2 0  9996
2 61935  43.0022 356.9455 0001236 265.8794  94.1917 15.27560367 53244
HAIYANG 4-01            
1 61936U 24208A   25293.85713939  .00001088  00000+0  17610-3 0  9991
2 61936  98.0075 299.8749 0001136 110.1723 249.9607 14.73277894 50206
STARLINK-11407 [DTC]    
1 61939U 24209A   25293.44320896  .00280616  00000+0  22364-2 0  9993
2 61939  53.1566 342.4068 0002091  34.5385 325.5768 15.69788288 54718
STARLINK-11337 [DTC]    
1 61940U 24209B   25293.56563390  .00167272  00000+0  13535-2 0  9998
2 61940  53.1567 341.7453 0001765 123.9472 236.1714 15.69787752 54711
STARLINK-11353 [DTC]    
1 61941U 24209C   25293.56072666  .00111784  00000+0  91001-3 0  9992
2 61941  53.1577 341.7139 0001382 356.4555   3.6453 15.69845689 54670
STARLINK-11320 [DTC]    
1 61942U 24209D   25293.42858128  .00277665  00000+0  22101-2 0  9998
2 61942  53.1567 343.0418 0001780  43.0550 317.0607 15.69827842 54642
STARLINK-11425 [DTC]    
1 61943U 24209E   25293.42368859  .00240345  00000+0  19251-2 0  9993
2 61943  53.1564 343.0097 0002390  24.1443 335.9686 15.69793155 54647
STARLINK-11422 [DTC]    
1 61944U 24209F   25293.86445648  .00292235  00000+0  23229-2 0  9999
2 61944  53.1568 340.7799 0000881 291.8482  68.2442 15.69814541 54711
STARLINK-11421 [DTC]    
1 61945U 24209G   25293.91670139  .00156328  00000+0  12721-2 0  9998
2 61945  53.1566 340.4652 0001245 120.9338 202.1294 15.69689769  5938
STARLINK-11410 [DTC]    
1 61946U 24209H   25293.85465183  .00187396  00000+0  15133-2 0  9992
2 61946  53.1567 340.7131 0001317  66.4680 293.6476 15.69767339 54750
STARLINK-11390 [DTC]    
1 61947U 24209J   25293.84975513  .00267503  00000+0  21358-2 0  9990
2 61947  53.1566 340.6817 0002532  78.5239 281.6063 15.69784368 54754
STARLINK-11414 [DTC]    
1 61948U 24209K   25293.44811164  .00363455  00000+0  28741-2 0  9994
2 61948  53.1567 342.4348 0001435  81.2890 278.8291 15.69720242 54695
STARLINK-11424 [DTC]    
1 61949U 24209L   25293.83503380  .00365657  00000+0  28777-2 0  9991
2 61949  53.1567 340.5837 0001844  93.6694 266.4535 15.69829687 54711
STARLINK-11423 [DTC]    
1 61950U 24209M   25293.84484468  .00434663  00000+0  33857-2 0  9998
2 61950  53.1565 340.6514 0001175  74.9758 285.1390 15.69868391 54750
STARLINK-11395 [DTC]    
1 61951U 24209N   25293.83993364  .00253380  00000+0  20267-2 0  9994
2 61951  53.1563 340.6144 0000453  76.1461 283.9608 15.69784683 54716
STARLINK-32572          
1 61952U 24209P   25293.81091045  .00053646  00000+0  18097-2 0  9999
2 61952  53.1584  71.9277 0001114  92.7875 267.3253 15.30210944 53486
STARLINK-32585          
1 61953U 24209Q   25293.65296050  .00030723  00000+0  10452-2 0  9993
2 61953  53.1597  73.0712 0001267  87.3520 272.7626 15.30197401 53457
STARLINK-32574          
1 61954U 24209R   25293.66350936  .00043643  00000+0  14758-2 0  9997
2 61954  53.1602  73.1362 0001165  87.2564 272.8570 15.30225752 53473
STARLINK-32583          
1 61955U 24209S   25293.84257844  .00031137  00000+0  10590-2 0  9997
2 61955  53.1594  72.1197 0001347  79.2631 280.8522 15.30201570 53509
STARLINK-32273          
1 61956U 24209T   25293.68556174  .00020745  00000+0  71057-3 0  9997
2 61956  53.1593  72.5615 0001456  46.1164 313.9957 15.30200482 53469
STARLINK-32359          
1 61957U 24209U   25293.90155062  .00035686  00000+0  12103-2 0  9990
2 61957  53.1591  71.7769 0001154  86.7274 273.3858 15.30224386 53510
STARLINK-32566          
1 61958U 24209V   25293.81302102  .00060867  00000+0  20494-2 0  9991
2 61958  53.1583  71.9372 0001163  88.2647 271.8487 15.30215888 53502
STARLINK-32499          
1 61959U 24210A   25293.23318244  .00053122  00000+0  19246-2 0  9993
2 61959  43.0014 252.6507 0001570 254.9925 105.0753 15.27604518 53446
STARLINK-32372          
1 61960U 24210B   25293.24089744  .00047359  00000+0  17183-2 0  9999
2 61960  42.9990 252.7031 0001398 263.7660  96.3033 15.27602293 53300
STARLINK-32452          
1 61961U 24210C   25293.90472884  .00010292  00000+0  38310-3 0  9996
2 61961  43.0052 242.1679 0002164 260.3281  99.7326 15.27572590 53619
STARLINK-32458          
1 61962U 24210D   25293.55306120  .00034300  00000+0  12508-2 0  9993
2 61962  42.9962 236.8995 0001666 265.1247  94.9415 15.27563397 53644
STARLINK-32487          
1 61963U 24210E   25293.85894126  .00039092  00000+0  14223-2 0  9994
2 61963  43.0043 249.5992 0000130 269.6907  90.3929 15.27586697 53527
STARLINK-32513          
1 61964U 24210F   25293.86844621  .00053501  00000+0  19395-2 0  9997
2 61964  42.9996 234.9634 0001831 266.9620  93.1023 15.27583023 53699
STARLINK-32514          
1 61965U 24210G   25293.90858626  .00046389  00000+0  16849-2 0  9990
2 61965  43.0012 242.1972 0000873 289.7293  70.3464 15.27576050 53611
STARLINK-32498          
1 61966U 24210H   25293.20043755  .00042151  00000+0  15344-2 0  9995
2 61966  43.0007 238.5507 0001879 250.4699 109.5950 15.27538341 53594
STARLINK-32518          
1 61967U 24210J   25293.86886376  .00048930  00000+0  17780-2 0  9999
2 61967  43.0001 242.5654 0001301 240.6891 119.3831 15.27540480 53473
STARLINK-32471          
1 61968U 24210K   25293.89830825  .00046600  00000+0  16928-2 0  9996
2 61968  42.9986 242.1215 0000760 307.5514  52.5269 15.27570286 53623
STARLINK-32450          
1 61969U 24210L   25293.90216947  .00046713  00000+0  16985-2 0  9990
2 61969  43.0025 242.1482 0001208 278.0766  81.9948 15.27537243 53485
STARLINK-32613          
1 61970U 24210M   25293.61537628  .00045270  00000+0  16449-2 0  9994
2 61970  42.9992 251.2171 0003299 252.6798 107.3693 15.27569564 53491
STARLINK-32610          
1 61971U 24210N   25293.60764203  .00035690  00000+0  12987-2 0  9993
2 61971  43.0037 251.1585 0006494 267.0883  92.9225 15.27602112 53494
STARLINK-32612          
1 61972U 24210P   25293.61151784  .00053151  00000+0  19258-2 0  9999
2 61972  43.0020 251.1872 0000830 277.4273  82.6484 15.27603214 53455
STARLINK-32601          
1 61973U 24210Q   25293.89092316  .00014730  00000+0  54425-3 0  9991
2 61973  42.9995 248.9813 0001296 280.2510  79.8196 15.27549210 53506
STARLINK-32593          
1 61974U 24210R   25293.22947912  .00036913  00000+0  13436-2 0  9993
2 61974  43.0022 253.4806 0001582 263.8671  96.2001 15.27595745 53395
STARLINK-32586          
1 61975U 24210S   25293.59353030  .00036105  00000+0  13151-2 0  9993
2 61975  43.0040 251.0475 0000915 303.5112  56.5652 15.27581884 53450
STARLINK-32611          
1 61976U 24210T   25293.58967898  .00037632  00000+0  13694-2 0  9994
2 61976  43.0017 251.0170 0000995 310.4130  49.6634 15.27597199 53451
STARLINK-32607          
1 61977U 24210U   25293.60379277  .00035359  00000+0  12873-2 0  9998
2 61977  43.0021 251.1277 0005996 266.0648  93.9518 15.27592423 53494
STARLINK-32606          
1 61978U 24210V   25293.58242935  .00065517  00000+0  22100-2 0  9999
2 61978  43.0073 250.9672 0001900 210.1440 149.9303 15.29849664 53453
STARLINK-32578          
1 61979U 24210W   25293.90248085  .00022742  00000+0  83320-3 0  9993
2 61979  42.9997 249.0648 0001529 278.1227  81.9451 15.27586982 53541
STARLINK-32517          
1 61980U 24210X   25293.16152005  .00039855  00000+0  14485-2 0  9997
2 61980  43.0010 253.8281 0002168 264.6587  95.4017 15.27613645 53338
STARLINK-32522          
1 61981U 24210Y   25293.25889718  .00060117  00000+0  21763-2 0  9998
2 61981  43.0009 252.8327 0001604 258.6872 101.3800 15.27581734 53409
STARLINK-32560          
1 61982U 24210Z   25293.89862052  .00037543  00000+0  13678-2 0  9994
2 61982  42.9999 249.0365 0001205 274.1239  85.9475 15.27558050 53504
OPTUS-X (ADS-01)        
1 62006U 24212A   25293.85808494 -.00000280  00000+0  00000+0 0  9991
2 62006   0.0512  69.0479 0000999 215.4046 186.2764  1.00570153  3366
STARLINK-11433 [DTC]    
1 62008U 24213A   25293.59258693  .00157869  00000+0  12796-2 0  9998
2 62008  53.1572  11.7215 0000990  76.0458 284.0670 15.69778391 52916
STARLINK-11262 [DTC]    
1 62009U 24213B   25293.50449079  .00269290  00000+0  21487-2 0  9999
2 62009  53.1568  12.6115 0001503  50.5775 309.5376 15.69794044 52897
STARLINK-11326 [DTC]    
1 62010U 24213C   25293.54853318  .00140056  00000+0  11380-2 0  9999
2 62010  53.1577  12.1629 0002940 159.7450 200.3685 15.69779937 52909
STARLINK-11330 [DTC]    
1 62011U 24213D   25293.62692635  .00278241  00000+0  22167-2 0  9995
2 62011  53.1574  11.9490 0001072  69.0118 291.1014 15.69803752 52917
STARLINK-11363 [DTC]    
1 62012U 24213E   25293.53872655  .00254913  00000+0  20390-2 0  9994
2 62012  53.1577  12.1051 0000756  96.0305 264.0799 15.69779763 52905
STARLINK-11377 [DTC]    
1 62013U 24213F   25293.59749494  .00305047  00000+0  24233-2 0  9990
2 62013  53.1574  11.7581 0001388  67.2251 292.8914 15.69789668 52912
STARLINK-11385 [DTC]    
1 62014U 24213G   25293.49467919  .00153618  00000+0  12453-2 0  9995
2 62014  53.1578  12.5454 0001114  77.7829 282.3314 15.69791796 52899
STARLINK-11396 [DTC]    
1 62015U 24213H   25293.46034514  .00284249  00000+0  22718-2 0  9994
2 62015  53.1575  12.3146 0001434  57.2020 302.9136 15.69707527 52894
STARLINK-11393 [DTC]    
1 62016U 24213J   25293.58277599  .00138050  00000+0  11225-2 0  9999
2 62016  53.1568  11.6573 0001672  97.6568 262.4640 15.69772953 52910
STARLINK-11343 [DTC]    
1 62017U 24213K   25293.55343602  .00055449  00000+0  45818-3 0  9992
2 62017  53.1578  12.1978 0003052 149.3548 210.7649 15.69774958 52905
